NORAD_CAT_ID,OBJECT_NAME,OBJECT_TYPE,EPOCH,MEAN_MOTION,ECCENTRICITY,INCLINATION,RA_OF_ASC_NODE,ARG_OF_PERICENTER,MEAN_ANOMALY,BSTAR,MEAN_MOTION_DOT,MEAN_MOTION_DDOT,TLE_LINE0,TLE_LINE1,TLE_LINE2,SEMIMAJOR_AXIS,PERIOD,APOGEE,PERIGEE,DECAYED
56814.0,STARLINK-6059,PAYLOAD,2024-06-19 22:44:31,14.98335348,0.0003045,69.9989,127.0894,267.8708,92.2102,0.00016832,1.916e-05,0.0,0 STARLINK-6059,1 56814U 23078AZ  24171.94758410  .00001916  00000-0  16832-3 0  9997,2 56814  69.9989 127.0894 0003045 267.8708  92.2102 14.98335348 58655,6950.176,96.107,574.158,569.925,0.0
56814.0,STARLINK-6059,PAYLOAD,2024-06-20 05:09:03,14.98340996,0.0003006,69.999,126.4173,267.3266,92.7549,0.00016144,1.834e-05,0.0,0 STARLINK-6059,1 56814U 23078AZ  24172.21462006  .00001834  00000-0  16144-3 0  9996,2 56814  69.9990 126.4173 0003006 267.3266  92.7549 14.98340996 58959,6950.159,96.106,574.113,569.935,0.0
56814.0,STARLINK-6059,PAYLOAD,2024-06-20 06:45:11,14.98342276,0.0002972,69.9991,126.249,266.9872,93.0947,0.00017627,2.011e-05,0.0,0 STARLINK-6059,1 56814U 23078AZ  24172.28137854  .00002011  00000-0  17627-3 0  9998,2 56814  69.9991 126.2490 0002972 266.9872  93.0947 14.98342276 58701,6950.155,96.106,574.086,569.954,0.0
56814.0,STARLINK-6059,PAYLOAD,2024-06-20 22:46:32,14.9833575,0.0002946,69.9993,124.566,269.1032,90.979,-3.3306e-05,-4.9e-06,0.0,0 STARLINK-6059,1 56814U 23078AZ  24172.94898885 -.00000490  00000-0 -33306-4 0  9993,2 56814  69.9993 124.5660 0002946 269.1032  90.9790 14.98335750 59068,6950.175,96.107,574.088,569.993,0.0
56814.0,STARLINK-6059,PAYLOAD,2024-06-21 06:47:12,14.98338492,0.0002941,69.9993,123.7243,268.9817,91.1005,-3.1515e-05,-4.69e-06,0.0,0 STARLINK-6059,1 56814U 23078AZ  24173.28278523 -.00000469  00000-0 -31515-4 0  9998,2 56814  69.9993 123.7243 0002941 268.9817  91.1005 14.98338492 58853,6950.167,96.106,574.076,569.988,0.0
56814.0,STARLINK-6059,PAYLOAD,2024-06-21 22:48:33,14.98336353,0.0002813,69.9996,122.0405,268.8837,91.2,-0.00010355,-1.328e-05,0.0,0 STARLINK-6059,1 56814U 23078AZ  24173.95038555 -.00001328  00000-0 -10355-3 0  9994,2 56814  69.9996 122.0405 0002813 268.8837  91.2000 14.98336353 58958,6950.173,96.107,573.993,570.083,0.0
56814.0,STARLINK-6059,PAYLOAD,2024-06-22 03:36:57,14.98336575,0.0002742,69.9999,121.5368,267.5645,92.52,-8.1759e-05,-1.069e-05,0.0,0 STARLINK-6059,1 56814U 23078AZ  24174.15066394 -.00001069  00000-0 -81759-4 0  9998,2 56814  69.9999 121.5368 0002742 267.5645  92.5200 14.98336575 59242,6950.173,96.107,573.943,570.132,0.0
56814.0,STARLINK-6059,PAYLOAD,2024-06-22 06:49:13,14.98337042,0.0002749,69.9999,121.1998,268.0074,92.077,-7.4438e-05,-9.81e-06,0.0,0 STARLINK-6059,1 56814U 23078AZ  24174.28418287 -.00000981  00000-0 -74438-4 0  9992,2 56814  69.9999 121.1998 0002749 268.0074  92.0770 14.98337042 59007,6950.171,96.107,573.947,570.126,0.0
56814.0,STARLINK-6059,PAYLOAD,2024-06-22 22:50:33,14.98331878,0.0002763,69.9999,119.5162,272.8815,87.2028,3.3001e-05,3.01e-06,0.0,0 STARLINK-6059,1 56814U 23078AZ  24174.95178135  .00000301  00000-0  33001-4 0  9996,2 56814  69.9999 119.5162 0002763 272.8815  87.2028 14.98331878 59107,6950.187,96.107,573.972,570.132,0.0
56814.0,STARLINK-6059,PAYLOAD,2024-06-23 03:38:58,14.98332367,0.0002755,69.9998,119.0112,272.4363,87.6481,3.791e-05,3.59e-06,0.0,0 STARLINK-6059,1 56814U 23078AZ  24175.15206063  .00000359  00000-0  37910-4 0  9997,2 56814  69.9998 119.0112 0002755 272.4363  87.6481 14.98332367 59393,6950.186,96.107,573.965,570.136,0.0
56814.0,STARLINK-6059,PAYLOAD,2024-06-23 06:51:14,14.98333875,0.0002741,69.9999,118.6748,272.4221,87.6624,5.334e-05,5.44e-06,0.0,0 STARLINK-6059,1 56814U 23078AZ  24175.28557902  .00000544  00000-0  53340-4 0  9993,2 56814  69.9999 118.6748 0002741 272.4221  87.6624 14.98333875 59150,6950.181,96.107,573.951,570.141,0.0
56814.0,STARLINK-6059,PAYLOAD,2024-06-23 22:52:34,14.98331514,0.0002749,69.9998,116.9926,260.5336,99.5512,2.27e-05,1.78e-06,0.0,0 STARLINK-6059,1 56814U 23078AZ  24175.95317923  .00000178  00000-0  22700-4 0  9993,2 56814  69.9998 116.9926 0002749 260.5336  99.5512 14.98331514 59258,6950.188,96.107,573.964,570.143,0.0
56814.0,STARLINK-6059,PAYLOAD,2024-06-24 03:40:58,14.98331939,0.0002746,69.9998,116.4876,259.9112,100.1738,2.6926e-05,2.28e-06,0.0,0 STARLINK-6059,1 56814U 23078AZ  24176.15345857  .00000228  00000-0  26926-4 0  9993,2 56814  69.9998 116.4876 0002746 259.9112 100.1738 14.98331939 59540,6950.187,96.107,573.96,570.143,0.0
56814.0,STARLINK-6059,PAYLOAD,2024-06-24 06:53:14,14.98332729,0.0002743,69.9999,116.1509,259.6717,100.4133,3.4483e-05,3.19e-06,0.0,0 STARLINK-6059,1 56814U 23078AZ  24176.28697762  .00000319  00000-0  34483-4 0  9990,2 56814  69.9999 116.1509 0002743 259.6717 100.4133 14.98332729 59300,6950.184,96.107,573.956,570.143,0.0
56814.0,STARLINK-6059,PAYLOAD,2024-06-24 21:18:27,14.98328781,0.0002664,70.0002,114.6362,253.8162,106.2704,-3.3943e-05,-4.98e-06,0.0,0 STARLINK-6059,1 56814U 23078AZ  24176.88782157 -.00000498  00000-0 -33943-4 0  9999,2 56814  70.0002 114.6362 0002664 253.8162 106.2704 14.98328781 59390,6950.197,96.107,573.913,570.21,0.0
56814.0,STARLINK-6059,PAYLOAD,2024-06-25 03:43:00,14.98328009,0.0002677,70.0002,113.963,253.8748,106.2116,-4.086e-05,-5.8e-06,0.0,0 STARLINK-6059,1 56814U 23078AZ  24177.15486239 -.00000580  00000-0 -40860-4 0  9990,2 56814  70.0002 113.9630 0002677 253.8748 106.2116 14.98328009 59697,6950.199,96.107,573.925,570.203,0.0
56814.0,STARLINK-6059,PAYLOAD,2024-06-25 05:19:08,14.98327784,0.0002683,70.0002,113.7945,255.5912,104.4949,-4.3931e-05,-6.17e-06,0.0,0 STARLINK-6059,1 56814U 23078AZ  24177.22162277 -.00000617  00000-0 -43931-4 0  9994,2 56814  70.0002 113.7945 0002683 255.5912 104.4949 14.98327784 59449,6950.2,96.107,573.929,570.2,0.0
56814.0,STARLINK-6059,PAYLOAD,2024-06-25 21:20:28,14.98333502,0.0002765,70.0,112.1106,257.4467,102.6383,3.4519e-05,3.19e-06,0.0,0 STARLINK-6059,1 56814U 23078AZ  24177.88921637  .00000319  00000-0  34519-4 0  9998,2 56814  70.0000 112.1106 0002765 257.4467 102.6383 14.98333502 59803,6950.182,96.107,573.969,570.125,0.0
56814.0,STARLINK-6059,PAYLOAD,2024-06-25 22:56:36,14.98333565,0.000277,70.0001,111.9423,257.2888,102.7961,3.4636e-05,3.2e-06,0.0,0 STARLINK-6059,1 56814U 23078AZ  24177.95597619  .00000320  00000-0  34636-4 0  9997,2 56814  70.0001 111.9423 0002770 257.2888 102.7961 14.98333565 59558,6950.182,96.107,573.972,570.122,0.0
56814.0,STARLINK-6059,PAYLOAD,2024-06-26 05:21:08,14.98336866,0.0002723,70.0002,111.2694,256.6024,103.4831,7.3332e-05,7.82e-06,0.0,0 STARLINK-6059,1 56814U 23078AZ  24178.22301237  .00000782  00000-0  73332-4 0  9995,2 56814  70.0002 111.2694 0002723 256.6024 103.4831 14.98336866 59590,6950.172,96.107,573.929,570.144,0.0
56814.0,STARLINK-6059,PAYLOAD,2024-06-26 22:58:37,14.98327028,0.0002692,70.0004,109.419,256.8198,103.2661,2.8823e-05,2.51e-06,0.0,0 STARLINK-6059,1 56814U 23078AZ  24178.95737916  .00000251  00000-0  28823-4 0  9998,2 56814  70.0004 109.4190 0002692 256.8198 103.2661 14.98327028 59703,6950.202,96.107,573.938,570.196,0.0
56814.0,STARLINK-6059,PAYLOAD,2024-06-27 03:47:01,14.98327078,0.0002792,70.0001,108.9127,269.8971,90.1868,3.2587e-05,2.96e-06,0.0,0 STARLINK-6059,1 56814U 23078AZ  24179.15766022  .00000296  00000-0  32587-4 0  9992,2 56814  70.0001 108.9127 0002792 269.8971  90.1868 14.98327078 59997,6950.202,96.107,574.007,570.126,0.0
56814.0,STARLINK-6059,PAYLOAD,2024-06-27 23:00:38,14.98330176,0.0002697,70.0005,106.8933,269.5763,90.5087,-5.2691e-05,-7.22e-06,0.0,0 STARLINK-6059,1 56814U 23078AZ  24179.95878124 -.00000722  00000-0 -52691-4 0  9991,2 56814  70.0005 106.8933 0002697 269.5763  90.5087 14.98330176 59858,6950.192,96.107,573.932,570.183,0.0
56814.0,STARLINK-6059,PAYLOAD,2024-06-28 03:49:02,14.98333762,0.000265,70.0005,106.388,269.4298,90.6557,-5.9921e-06,-1.64e-06,0.0,0 STARLINK-6059,1 56814U 23078AZ  24180.15905756 -.00000164  00000-0 -59921-5 0  9991,2 56814  70.0005 106.3880 0002650 269.4298  90.6557 14.98333762 60146,6950.181,96.107,573.888,570.204,0.0
56814.0,STARLINK-6059,PAYLOAD,2024-06-28 05:25:10,14.9833478,0.0002635,70.0006,106.2197,269.3698,90.7159,6.512e-06,-1.5e-07,0.0,0 STARLINK-6059,1 56814U 23078AZ  24180.22581647 -.00000015  00000-0  65120-5 0  9990,2 56814  70.0006 106.2197 0002635 269.3698  90.7159 14.98334780 59893,6950.178,96.107,573.874,570.212,0.0
56814.0,STARLINK-6059,PAYLOAD,2024-06-28 23:02:39,14.98332616,0.0002562,70.0008,104.3692,262.4214,97.6655,7.3046e-05,7.79e-06,0.0,0 STARLINK-6059,1 56814U 23078AZ  24180.96017462  .00000779  00000-0  73046-4 0  9991,2 56814  70.0008 104.3692 0002562 262.4214  97.6655 14.98332616 60009,6950.185,96.107,573.83,570.269,0.0
56814.0,STARLINK-6059,PAYLOAD,2024-06-29 03:51:02,14.98339088,0.0002464,70.0008,103.8649,259.4015,100.6867,0.0001458,1.648e-05,0.0,0 STARLINK-6059,1 56814U 23078AZ  24181.16044806  .00001648  00000-0  14580-3 0  9999,2 56814  70.0008 103.8649 0002464 259.4015 100.6867 14.98339088 60292,6950.165,96.106,573.742,570.317,0.0
56814.0,STARLINK-6059,PAYLOAD,2024-06-29 11:51:43,14.98334809,0.0002886,69.9988,103.0166,288.7483,71.3363,-3.2239e-06,-1.31e-06,0.0,0 STARLINK-6059,1 56814U 23078AZ  24181.49425488 -.00000131  00000-0 -32239-5 0  9995,2 56814  69.9988 103.0166 0002886 288.7483  71.3363 14.98334809 60341,6950.178,96.107,574.049,570.037,0.0
56814.0,STARLINK-6059,PAYLOAD,2024-06-29 19:52:25,14.98311488,0.0002851,70.0006,102.181,262.8974,97.1861,-0.00019202,-2.382e-05,0.0,0 STARLINK-6059,1 56814U 23078AZ  24181.82807469 -.00002382  00000-0 -19202-3 0  9998,2 56814  70.0006 102.1810 0002851 262.8974  97.1861 14.98311488 60393,6950.25,96.108,574.097,570.134,0.0
56814.0,STARLINK-6059,PAYLOAD,2024-06-29 23:04:41,14.98311442,0.0002852,70.0004,101.8441,264.0753,96.0081,-0.00018874,-2.343e-05,0.0,0 STARLINK-6059,1 56814U 23078AZ  24181.96159600 -.00002343  00000-0 -18874-3 0  9991,2 56814  70.0004 101.8441 0002852 264.0753  96.0081 14.98311442 60153,6950.25,96.108,574.097,570.133,0.0
